{
  "type": "FeatureCollection",
  "features": [
    {
      "type": "Feature",
      "properties": {
        "norad_id": 24876,
        "name": "GPS BIIR-2  (PRN 13)",
        "group": "gps-ops",
        "lat": -26.029635448742866,
        "lon": 86.24061063280094,
        "alt_km": 20178.06382511435,
        "timestamp": "2025-12-21T03:56:51.096133+00:00",
        "meta_object_name": "GPS BIIR-2  (PRN 13)",
        "meta_object_id": "1997-035A",
        "meta_epoch": "2025-12-20T05:04:22.923552",
        "meta_mean_motion": 2.0056375,
        "meta_eccentricity": 0.00968119,
        "meta_inclination": 55.8989,
        "meta_ra_of_asc_node": 105.5767,
        "meta_arg_of_pericenter": 56.9717,
        "meta_mean_anomaly": 303.9301,
        "meta_ephemeris_type": 0,
        "meta_classification_type": "U",
        "meta_norad_cat_id": 24876,
        "meta_element_set_no": 999,
        "meta_rev_at_epoch": 20836,
        "meta_bstar": 0,
        "meta_mean_motion_dot": -8e-08,
        "meta_mean_motion_ddot": 0,
        "tle_line1": "1 24876U 97035A   25354.21137643 -.00000008  00000+0  00000+0 0  9994",
        "tle_line2": "2 24876  55.8989 105.5767 0096811  56.9717 303.9301  2.00563750208360"
      },
      "geometry": {
        "type": "Point",
        "coordinates": [
          86.24061063280094,
          -26.029635448742866
        ]
      }
    },
    {
      "type": "Feature",
      "properties": {
        "norad_id": 26360,
        "name": "GPS BIIR-4  (PRN 20)",
        "group": "gps-ops",
        "lat": 45.84979947687727,
        "lon": 72.58386927349135,
        "alt_km": 20279.922720311548,
        "timestamp": "2025-12-21T03:56:51.096174+00:00",
        "meta_object_name": "GPS BIIR-4  (PRN 20)",
        "meta_object_id": "2000-025A",
        "meta_epoch": "2025-12-20T19:36:21.659904",
        "meta_mean_motion": 2.00567097,
        "meta_eccentricity": 0.0038899,
        "meta_inclination": 55.05,
        "meta_ra_of_asc_node": 26.5112,
        "meta_arg_of_pericenter": 242.7522,
        "meta_mean_anomaly": 287.4237,
        "meta_ephemeris_type": 0,
        "meta_classification_type": "U",
        "meta_norad_cat_id": 26360,
        "meta_element_set_no": 999,
        "meta_rev_at_epoch": 18769,
        "meta_bstar": 0,
        "meta_mean_motion_dot": -6.3e-07,
        "meta_mean_motion_ddot": 0,
        "tle_line1": "1 26360U 00025A   25354.81691736 -.00000063  00000+0  00000+0 0  9992",
        "tle_line2": "2 26360  55.0500  26.5112 0038899 242.7522 287.4237  2.00567097187692"
      },
      "geometry": {
        "type": "Point",
        "coordinates": [
          72.58386927349135,
          45.84979947687727
        ]
      }
    },
    {
      "type": "Feature",
      "properties": {
        "norad_id": 26407,
        "name": "GPS BIIR-5  (PRN 22)",
        "group": "gps-ops",
        "lat": -53.60630811190966,
        "lon": 114.83773823182236,
        "alt_km": 19939.11867164795,
        "timestamp": "2025-12-21T03:56:51.096189+00:00",
        "meta_object_name": "GPS BIIR-5  (PRN 22)",
        "meta_object_id": "2000-040A",
        "meta_epoch": "2025-12-20T19:30:51.776928",
        "meta_mean_motion": 2.00568108,
        "meta_eccentricity": 0.012557,
        "meta_inclination": 54.889,
        "meta_ra_of_asc_node": 222.2479,
        "meta_arg_of_pericenter": 301.9469,
        "meta_mean_anomaly": 65.1307,
        "meta_ephemeris_type": 0,
        "meta_classification_type": "U",
        "meta_norad_cat_id": 26407,
        "meta_element_set_no": 999,
        "meta_rev_at_epoch": 18637,
        "meta_bstar": 0,
        "meta_mean_motion_dot": 7.2e-07,
        "meta_mean_motion_ddot": 0,
        "tle_line1": "1 26407U 00040A   25354.81309927  .00000072  00000+0  00000+0 0  9998",
        "tle_line2": "2 26407  54.8890 222.2479 0125570 301.9469  65.1307  2.00568108186372"
      },
      "geometry": {
        "type": "Point",
        "coordinates": [
          114.83773823182236,
          -53.60630811190966
        ]
      }
    },
    {
      "type": "Feature",
      "properties": {
        "norad_id": 27663,
        "name": "GPS BIIR-8  (PRN 16)",
        "group": "gps-ops",
        "lat": 28.912533906373685,
        "lon": -115.11349062170038,
        "alt_km": 19799.37155518862,
        "timestamp": "2025-12-21T03:56:51.096202+00:00",
        "meta_object_name": "GPS BIIR-8  (PRN 16)",
        "meta_object_id": "2003-005A",
        "meta_epoch": "2025-12-20T15:07:28.763328",
        "meta_mean_motion": 2.00570507,
        "meta_eccentricity": 0.0147742,
        "meta_inclination": 54.9216,
        "meta_ra_of_asc_node": 222.0644,
        "meta_arg_of_pericenter": 51.9121,
        "meta_mean_anomaly": 319.0535,
        "meta_ephemeris_type": 0,
        "meta_classification_type": "U",
        "meta_norad_cat_id": 27663,
        "meta_element_set_no": 999,
        "meta_rev_at_epoch": 16773,
        "meta_bstar": 0,
        "meta_mean_motion_dot": 7.3e-07,
        "meta_mean_motion_ddot": 0,
        "tle_line1": "1 27663U 03005A   25354.63019402  .00000073  00000+0  00000+0 0  9994",
        "tle_line2": "2 27663  54.9216 222.0644 0147742  51.9121 319.0535  2.00570507167733"
      },
      "geometry": {
        "type": "Point",
        "coordinates": [
          -115.11349062170038,
          28.912533906373685
        ]
      }
    },
    {
      "type": "Feature",
      "properties": {
        "norad_id": 28190,
        "name": "GPS BIIR-11 (PRN 19)",
        "group": "gps-ops",
        "lat": -12.869692378832118,
        "lon": 112.07114913511433,
        "alt_km": 19928.944625366847,
        "timestamp": "2025-12-21T03:56:51.096214+00:00",
        "meta_object_name": "GPS BIIR-11 (PRN 19)",
        "meta_object_id": "2004-009A",
        "meta_epoch": "2025-12-20T02:10:39.105696",
        "meta_mean_motion": 2.00560582,
        "meta_eccentricity": 0.01084506,
        "meta_inclination": 54.979,
        "meta_ra_of_asc_node": 282.9228,
        "meta_arg_of_pericenter": 167.7566,
        "meta_mean_anomaly": 332.1268,
        "meta_ephemeris_type": 0,
        "meta_classification_type": "U",
        "meta_norad_cat_id": 28190,
        "meta_element_set_no": 999,
        "meta_rev_at_epoch": 15935,
        "meta_bstar": 0,
        "meta_mean_motion_dot": -3.4e-07,
        "meta_mean_motion_ddot": 0,
        "tle_line1": "1 28190U 04009A   25354.09073039 -.00000034  00000+0  00000+0 0  9999",
        "tle_line2": "2 28190  54.9790 282.9228 0108450 167.7566 332.1268  2.00560582159351"
      },
      "geometry": {
        "type": "Point",
        "coordinates": [
          112.07114913511433,
          -12.869692378832118
        ]
      }
    },
    {
      "type": "Feature",
      "properties": {
        "norad_id": 28474,
        "name": "GPS BIIR-13 (PRN 02)",
        "group": "gps-ops",
        "lat": -52.13337165232993,
        "lon": -144.70286007333985,
        "alt_km": 19924.933383136715,
        "timestamp": "2025-12-21T03:56:51.096225+00:00",
        "meta_object_name": "GPS BIIR-13 (PRN 02)",
        "meta_object_id": "2004-045A",
        "meta_epoch": "2025-12-20T07:31:09.755904",
        "meta_mean_motion": 2.00569954,
        "meta_eccentricity": 0.01709047,
        "meta_inclination": 55.2369,
        "meta_ra_of_asc_node": 332.1012,
        "meta_arg_of_pericenter": 309.5849,
        "meta_mean_anomaly": 51.3395,
        "meta_ephemeris_type": 0,
        "meta_classification_type": "U",
        "meta_norad_cat_id": 28474,
        "meta_element_set_no": 999,
        "meta_rev_at_epoch": 15484,
        "meta_bstar": 0,
        "meta_mean_motion_dot": -7.7e-07,
        "meta_mean_motion_ddot": 0,
        "tle_line1": "1 28474U 04045A   25354.31330736 -.00000077  00000+0  00000+0 0  9996",
        "tle_line2": "2 28474  55.2369 332.1012 0170904 309.5849  51.3395  2.00569954154846"
      },
      "geometry": {
        "type": "Point",
        "coordinates": [
          -144.70286007333985,
          -52.13337165232993
        ]
      }
    },
    {
      "type": "Feature",
      "properties": {
        "norad_id": 28874,
        "name": "GPS BIIRM-1 (PRN 17)",
        "group": "gps-ops",
        "lat": -26.690142801475815,
        "lon": 120.92171968439287,
        "alt_km": 20123.2902932959,
        "timestamp": "2025-12-21T03:56:51.096237+00:00",
        "meta_object_name": "GPS BIIRM-1 (PRN 17)",
        "meta_object_id": "2005-038A",
        "meta_epoch": "2025-12-20T01:24:11.888352",
        "meta_mean_motion": 2.00578006,
        "meta_eccentricity": 0.01314124,
        "meta_inclination": 55.0254,
        "meta_ra_of_asc_node": 280.4063,
        "meta_arg_of_pericenter": 293.7176,
        "meta_mean_anomaly": 202.3277,
        "meta_ephemeris_type": 0,
        "meta_classification_type": "U",
        "meta_norad_cat_id": 28874,
        "meta_element_set_no": 999,
        "meta_rev_at_epoch": 14824,
        "meta_bstar": 0,
        "meta_mean_motion_dot": -3e-07,
        "meta_mean_motion_ddot": 0,
        "tle_line1": "1 28874U 05038A   25354.05847093 -.00000030  00000+0  00000+0 0  9992",
        "tle_line2": "2 28874  55.0254 280.4063 0131412 293.7176 202.3277  2.00578006148242"
      },
      "geometry": {
        "type": "Point",
        "coordinates": [
          120.92171968439287,
          -26.690142801475815
        ]
      }
    }
  ]
}